[
    {
        "id": "1",
        "iso": "AF",
        "name": "Afghanistan",
        "iso3": "AFG",
        "numcode": "4",
        "phonecode": "93",
        "phone_digits": "8",
        "flag": "flags/af.png",
        "slug": "null"
    },
    {
        "id": "2",
        "iso": "AL",
        "name": "Albanien",
        "iso3": "ALB",
        "numcode": "8",
        "phonecode": "355",
        "phone_digits": "8",
        "flag": "flags/al.png",
        "slug": "null"
    },
    {
        "id": "3",
        "iso": "DZ",
        "name": "Algeriet",
        "iso3": "DZA",
        "numcode": "12",
        "phonecode": "213",
        "phone_digits": "8",
        "flag": "flags/dz.png",
        "slug": "null"
    },
    {
        "id": "4",
        "iso": "AS",
        "name": "Amerikanska Samoa",
        "iso3": "ASM",
        "numcode": "16",
        "phonecode": "1684",
        "phone_digits": "8",
        "flag": "flags/as.png",
        "slug": "null"
    },
    {
        "id": "5",
        "iso": "AD",
        "name": "Andorra",
        "iso3": "AND",
        "numcode": "20",
        "phonecode": "376",
        "phone_digits": "8",
        "flag": "flags/ad.png",
        "slug": "null"
    },
    {
        "id": "6",
        "iso": "AO",
        "name": "Angola",
        "iso3": "AGO",
        "numcode": "24",
        "phonecode": "244",
        "phone_digits": "8",
        "flag": "flags/ao.png",
        "slug": "null"
    },
    {
        "id": "7",
        "iso": "AI",
        "name": "Anguilla",
        "iso3": "AIA",
        "numcode": "660",
        "phonecode": "1264",
        "phone_digits": "8",
        "flag": "flags/ai.png",
        "slug": "null"
    },
    {
        "id": "8",
        "iso": "AQ",
        "name": "Antarktis",
        "iso3": "",
        "numcode": "0",
        "phonecode": "0",
        "phone_digits": "8",
        "flag": "flags/aq.png",
        "slug": "null"
    },
    {
        "id": "9",
        "iso": "AG",
        "name": "Antigua och Barbuda",
        "iso3": "ATG",
        "numcode": "28",
        "phonecode": "1268",
        "phone_digits": "8",
        "flag": "flags/ag.png",
        "slug": "null"
    },
    {
        "id": "10",
        "iso": "AR",
        "name": "Argentina",
        "iso3": "ARG",
        "numcode": "32",
        "phonecode": "54",
        "phone_digits": "8",
        "flag": "flags/ar.png",
        "slug": "null"
    },
    {
        "id": "11",
        "iso": "AM",
        "name": "Armenien",
        "iso3": "ARM",
        "numcode": "51",
        "phonecode": "374",
        "phone_digits": "8",
        "flag": "flags/am.png",
        "slug": "null"
    },
    {
        "id": "12",
        "iso": "AW",
        "name": "Aruba",
        "iso3": "ABW",
        "numcode": "533",
        "phonecode": "297",
        "phone_digits": "8",
        "flag": "flags/aw.png",
        "slug": "null"
    },
    {
        "id": "13",
        "iso": "AU",
        "name": "Australien",
        "iso3": "AUS",
        "numcode": "36",
        "phonecode": "61",
        "phone_digits": "8",
        "flag": "flags/au.png",
        "slug": "null"
    },
    {
        "id": "14",
        "iso": "AT",
        "name": "Österrike",
        "iso3": "AUT",
        "numcode": "40",
        "phonecode": "43",
        "phone_digits": "8",
        "flag": "flags/at.png",
        "slug": "null"
    },
    {
        "id": "15",
        "iso": "AZ",
        "name": "Azerbajdzjan",
        "iso3": "AZE",
        "numcode": "31",
        "phonecode": "994",
        "phone_digits": "8",
        "flag": "flags/az.png",
        "slug": "null"
    },
    {
        "id": "16",
        "iso": "BS",
        "name": "Bahamas",
        "iso3": "BHS",
        "numcode": "44",
        "phonecode": "1242",
        "phone_digits": "8",
        "flag": "flags/bs.png",
        "slug": "null"
    },
    {
        "id": "17",
        "iso": "BH",
        "name": "Bahrain",
        "iso3": "BHR",
        "numcode": "48",
        "phonecode": "973",
        "phone_digits": "8",
        "flag": "flags/bh.png",
        "slug": "null"
    },
    {
        "id": "18",
        "iso": "BD",
        "name": "Bangladesh",
        "iso3": "BGD",
        "numcode": "50",
        "phonecode": "880",
        "phone_digits": "8",
        "flag": "flags/bd.png",
        "slug": "null"
    },
    {
        "id": "19",
        "iso": "BB",
        "name": "Barbados",
        "iso3": "BRB",
        "numcode": "52",
        "phonecode": "1246",
        "phone_digits": "8",
        "flag": "flags/bb.png",
        "slug": "null"
    },
    {
        "id": "20",
        "iso": "BY",
        "name": "Belarus",
        "iso3": "BLR",
        "numcode": "112",
        "phonecode": "375",
        "phone_digits": "8",
        "flag": "flags/by.png",
        "slug": "null"
    },
    {
        "id": "21",
        "iso": "BE",
        "name": "Belgien",
        "iso3": "BEL",
        "numcode": "56",
        "phonecode": "32",
        "phone_digits": "8",
        "flag": "flags/be.png",
        "slug": "null"
    },
    {
        "id": "22",
        "iso": "BZ",
        "name": "Belize",
        "iso3": "BLZ",
        "numcode": "84",
        "phonecode": "501",
        "phone_digits": "8",
        "flag": "flags/bz.png",
        "slug": "null"
    },
    {
        "id": "23",
        "iso": "BJ",
        "name": "Benin",
        "iso3": "BEN",
        "numcode": "204",
        "phonecode": "229",
        "phone_digits": "8",
        "flag": "flags/bj.png",
        "slug": "null"
    },
    {
        "id": "24",
        "iso": "BM",
        "name": "Bermuda",
        "iso3": "BMU",
        "numcode": "60",
        "phonecode": "1441",
        "phone_digits": "8",
        "flag": "flags/bm.png",
        "slug": "null"
    },
    {
        "id": "25",
        "iso": "BT",
        "name": "Bhutan",
        "iso3": "BTN",
        "numcode": "64",
        "phonecode": "975",
        "phone_digits": "8",
        "flag": "flags/bt.png",
        "slug": "null"
    },
    {
        "id": "26",
        "iso": "BO",
        "name": "Bolivia",
        "iso3": "BOL",
        "numcode": "68",
        "phonecode": "591",
        "phone_digits": "8",
        "flag": "flags/bo.png",
        "slug": "null"
    },
    {
        "id": "27",
        "iso": "BA",
        "name": "Bosnien och Hercegovina",
        "iso3": "BIH",
        "numcode": "70",
        "phonecode": "387",
        "phone_digits": "8",
        "flag": "flags/ba.png",
        "slug": "null"
    },
    {
        "id": "28",
        "iso": "BW",
        "name": "Botswana",
        "iso3": "BWA",
        "numcode": "72",
        "phonecode": "267",
        "phone_digits": "8",
        "flag": "flags/bw.png",
        "slug": "null"
    },
    {
        "id": "29",
        "iso": "BV",
        "name": "Bouvetön",
        "iso3": "",
        "numcode": "0",
        "phonecode": "0",
        "phone_digits": "8",
        "flag": "flags/bv.png",
        "slug": "null"
    },
    {
        "id": "30",
        "iso": "BR",
        "name": "Brasilien",
        "iso3": "BRA",
        "numcode": "76",
        "phonecode": "55",
        "phone_digits": "8",
        "flag": "flags/br.png",
        "slug": "null"
    },
    {
        "id": "31",
        "iso": "IO",
        "name": "Brittiska territoriet i Indiska oceanen",
        "iso3": "",
        "numcode": "0",
        "phonecode": "246",
        "phone_digits": "8",
        "flag": "flags/io.png",
        "slug": "null"
    },
    {
        "id": "32",
        "iso": "BN",
        "name": "Brunei",
        "iso3": "BRN",
        "numcode": "96",
        "phonecode": "673",
        "phone_digits": "8",
        "flag": "flags/bn.png",
        "slug": "null"
    },
    {
        "id": "33",
        "iso": "BG",
        "name": "Bulgarien",
        "iso3": "BGR",
        "numcode": "100",
        "phonecode": "359",
        "phone_digits": "8",
        "flag": "flags/bg.png",
        "slug": "null"
    },
    {
        "id": "34",
        "iso": "BF",
        "name": "Burkina Faso",
        "iso3": "BFA",
        "numcode": "854",
        "phonecode": "226",
        "phone_digits": "8",
        "flag": "flags/bf.png",
        "slug": "null"
    },
    {
        "id": "35",
        "iso": "BI",
        "name": "Burundi",
        "iso3": "BDI",
        "numcode": "108",
        "phonecode": "257",
        "phone_digits": "8",
        "flag": "flags/bi.png",
        "slug": "null"
    },
    {
        "id": "36",
        "iso": "KH",
        "name": "Kambodja",
        "iso3": "KHM",
        "numcode": "116",
        "phonecode": "855",
        "phone_digits": "8",
        "flag": "flags/kh.png",
        "slug": "null"
    },
    {
        "id": "37",
        "iso": "CM",
        "name": "Kamerun",
        "iso3": "CMR",
        "numcode": "120",
        "phonecode": "237",
        "phone_digits": "8",
        "flag": "flags/cm.png",
        "slug": "null"
    },
    {
        "id": "38",
        "iso": "CA",
        "name": "Kanada",
        "iso3": "CAN",
        "numcode": "124",
        "phonecode": "1",
        "phone_digits": "8",
        "flag": "flags/ca.png",
        "slug": "null"
    },
    {
        "id": "39",
        "iso": "CV",
        "name": "Kap Verde",
        "iso3": "CPV",
        "numcode": "132",
        "phonecode": "238",
        "phone_digits": "8",
        "flag": "flags/cv.png",
        "slug": "null"
    },
    {
        "id": "40",
        "iso": "KY",
        "name": "Caymanöarna",
        "iso3": "CYM",
        "numcode": "136",
        "phonecode": "1345",
        "phone_digits": "8",
        "flag": "flags/ky.png",
        "slug": "null"
    },
    {
        "id": "41",
        "iso": "CF",
        "name": "Centralafrikanska republiken",
        "iso3": "CAF",
        "numcode": "140",
        "phonecode": "236",
        "phone_digits": "8",
        "flag": "flags/cf.png",
        "slug": "null"
    },
    {
        "id": "42",
        "iso": "TD",
        "name": "Tchad",
        "iso3": "TCD",
        "numcode": "148",
        "phonecode": "235",
        "phone_digits": "8",
        "flag": "flags/td.png",
        "slug": "null"
    },
    {
        "id": "43",
        "iso": "CL",
        "name": "Chile",
        "iso3": "CHL",
        "numcode": "152",
        "phonecode": "56",
        "phone_digits": "8",
        "flag": "flags/cl.png",
        "slug": "null"
    },
    {
        "id": "44",
        "iso": "CN",
        "name": "Kina",
        "iso3": "CHN",
        "numcode": "156",
        "phonecode": "86",
        "phone_digits": "8",
        "flag": "flags/cn.png",
        "slug": "null"
    },
    {
        "id": "45",
        "iso": "CX",
        "name": "Julön",
        "iso3": "",
        "numcode": "0",
        "phonecode": "61",
        "phone_digits": "8",
        "flag": "flags/cx.png",
        "slug": "null"
    },
    {
        "id": "46",
        "iso": "CC",
        "name": "Kokosöarna",
        "iso3": "",
        "numcode": "0",
        "phonecode": "672",
        "phone_digits": "8",
        "flag": "flags/cc.png",
        "slug": "null"
    },
    {
        "id": "47",
        "iso": "CO",
        "name": "Colombia",
        "iso3": "COL",
        "numcode": "170",
        "phonecode": "57",
        "phone_digits": "10",
        "flag": "flags/co.png",
        "slug": "null"
    },
    {
        "id": "48",
        "iso": "KM",
        "name": "Komorerna",
        "iso3": "COM",
        "numcode": "174",
        "phonecode": "269",
        "phone_digits": "8",
        "flag": "flags/km.png",
        "slug": "null"
    },
    {
        "id": "49",
        "iso": "CG",
        "name": "Kongo",
        "iso3": "COG",
        "numcode": "178",
        "phonecode": "242",
        "phone_digits": "8",
        "flag": "flags/cg.png",
        "slug": "null"
    },
    {
        "id": "50",
        "iso": "CD",
        "name": "Kongo-Kinshasa",
        "iso3": "COD",
        "numcode": "180",
        "phonecode": "242",
        "phone_digits": "8",
        "flag": "flags/cd.png",
        "slug": "null"
    },
    {
        "id": "51",
        "iso": "CK",
        "name": "Cooköarna",
        "iso3": "COK",
        "numcode": "184",
        "phonecode": "682",
        "phone_digits": "8",
        "flag": "flags/ck.png",
        "slug": "null"
    },
    {
        "id": "52",
        "iso": "CR",
        "name": "Costa Rica",
        "iso3": "CRI",
        "numcode": "188",
        "phonecode": "506",
        "phone_digits": "8",
        "flag": "flags/cr.png",
        "slug": "null"
    },
    {
        "id": "53",
        "iso": "CI",
        "name": "Elfenbenskusten",
        "iso3": "CIV",
        "numcode": "384",
        "phonecode": "225",
        "phone_digits": "8",
        "flag": "flags/ci.png",
        "slug": "null"
    },
    {
        "id": "54",
        "iso": "HR",
        "name": "Kroatien",
        "iso3": "HRV",
        "numcode": "191",
        "phonecode": "385",
        "phone_digits": "8",
        "flag": "flags/hr.png",
        "slug": "null"
    },
    {
        "id": "55",
        "iso": "CU",
        "name": "Kuba",
        "iso3": "CUB",
        "numcode": "192",
        "phonecode": "53",
        "phone_digits": "8",
        "flag": "flags/cu.png",
        "slug": "null"
    },
    {
        "id": "56",
        "iso": "CY",
        "name": "Cypern",
        "iso3": "CYP",
        "numcode": "196",
        "phonecode": "357",
        "phone_digits": "8",
        "flag": "flags/cy.png",
        "slug": "null"
    },
    {
        "id": "57",
        "iso": "CZ",
        "name": "Tjeckien",
        "iso3": "CZE",
        "numcode": "203",
        "phonecode": "420",
        "phone_digits": "8",
        "flag": "flags/cz.png",
        "slug": "null"
    },
    {
        "id": "58",
        "iso": "DK",
        "name": "Danmark",
        "iso3": "DNK",
        "numcode": "208",
        "phonecode": "45",
        "phone_digits": "8",
        "flag": "flags/dk.png",
        "slug": "null"
    },
    {
        "id": "59",
        "iso": "DJ",
        "name": "Djibouti",
        "iso3": "DJI",
        "numcode": "262",
        "phonecode": "253",
        "phone_digits": "8",
        "flag": "flags/dj.png",
        "slug": "null"
    },
    {
        "id": "60",
        "iso": "DM",
        "name": "Dominica",
        "iso3": "DMA",
        "numcode": "212",
        "phonecode": "1767",
        "phone_digits": "8",
        "flag": "flags/dm.png",
        "slug": "null"
    },
    {
        "id": "61",
        "iso": "DO",
        "name": "Dominikanska republiken",
        "iso3": "DOM",
        "numcode": "214",
        "phonecode": "1809",
        "phone_digits": "8",
        "flag": "flags/do.png",
        "slug": "null"
    },
    {
        "id": "62",
        "iso": "EC",
        "name": "Ecuador",
        "iso3": "ECU",
        "numcode": "218",
        "phonecode": "593",
        "phone_digits": "8",
        "flag": "flags/ec.png",
        "slug": "null"
    },
    {
        "id": "63",
        "iso": "EG",
        "name": "Egypten",
        "iso3": "EGY",
        "numcode": "818",
        "phonecode": "20",
        "phone_digits": "8",
        "flag": "flags/eg.png",
        "slug": "null"
    },
    {
        "id": "64",
        "iso": "SV",
        "name": "El Salvador",
        "iso3": "SLV",
        "numcode": "222",
        "phonecode": "503",
        "phone_digits": "8",
        "flag": "flags/sv.png",
        "slug": "null"
    },
    {
        "id": "65",
        "iso": "GQ",
        "name": "Ekvatorialguinea",
        "iso3": "GNQ",
        "numcode": "226",
        "phonecode": "240",
        "phone_digits": "8",
        "flag": "flags/gq.png",
        "slug": "null"
    },
    {
        "id": "66",
        "iso": "ER",
        "name": "Eritrea",
        "iso3": "ERI",
        "numcode": "232",
        "phonecode": "291",
        "phone_digits": "8",
        "flag": "flags/er.png",
        "slug": "null"
    },
    {
        "id": "67",
        "iso": "EE",
        "name": "Estland",
        "iso3": "EST",
        "numcode": "233",
        "phonecode": "372",
        "phone_digits": "8",
        "flag": "flags/ee.png",
        "slug": "null"
    },
    {
        "id": "68",
        "iso": "ET",
        "name": "Etiopien",
        "iso3": "ETH",
        "numcode": "231",
        "phonecode": "251",
        "phone_digits": "8",
        "flag": "flags/et.png",
        "slug": "null"
    },
    {
        "id": "69",
        "iso": "FK",
        "name": "Falklandsöarna",
        "iso3": "FLK",
        "numcode": "238",
        "phonecode": "500",
        "phone_digits": "8",
        "flag": "flags/fk.png",
        "slug": "null"
    },
    {
        "id": "70",
        "iso": "FO",
        "name": "Färöarna",
        "iso3": "FRO",
        "numcode": "234",
        "phonecode": "298",
        "phone_digits": "8",
        "flag": "flags/fo.png",
        "slug": "null"
    },
    {
        "id": "71",
        "iso": "FJ",
        "name": "Fiji",
        "iso3": "FJI",
        "numcode": "242",
        "phonecode": "679",
        "phone_digits": "8",
        "flag": "flags/fj.png",
        "slug": "null"
    },
    {
        "id": "72",
        "iso": "FI",
        "name": "Finland",
        "iso3": "FIN",
        "numcode": "246",
        "phonecode": "358",
        "phone_digits": "8",
        "flag": "flags/fi.png",
        "slug": "null"
    },
    {
        "id": "73",
        "iso": "FR",
        "name": "Frankrike",
        "iso3": "FRA",
        "numcode": "250",
        "phonecode": "33",
        "phone_digits": "8",
        "flag": "flags/fr.png",
        "slug": "null"
    },
    {
        "id": "74",
        "iso": "GF",
        "name": "Franska Guyana",
        "iso3": "GUF",
        "numcode": "254",
        "phonecode": "594",
        "phone_digits": "8",
        "flag": "flags/gf.png",
        "slug": "null"
    },
    {
        "id": "75",
        "iso": "PF",
        "name": "Franska Polynesien",
        "iso3": "PYF",
        "numcode": "258",
        "phonecode": "689",
        "phone_digits": "8",
        "flag": "flags/pf.png",
        "slug": "null"
    },
    {
        "id": "76",
        "iso": "TF",
        "name": "Franska sydterritorierna",
        "iso3": "",
        "numcode": "0",
        "phonecode": "0",
        "phone_digits": "8",
        "flag": "flags/tf.png",
        "slug": "null"
    },
    {
        "id": "77",
        "iso": "GA",
        "name": "Gabon",
        "iso3": "GAB",
        "numcode": "266",
        "phonecode": "241",
        "phone_digits": "8",
        "flag": "flags/ga.png",
        "slug": "null"
    },
    {
        "id": "78",
        "iso": "GM",
        "name": "Gambia",
        "iso3": "GMB",
        "numcode": "270",
        "phonecode": "220",
        "phone_digits": "8",
        "flag": "flags/gm.png",
        "slug": "null"
    },
    {
        "id": "79",
        "iso": "GE",
        "name": "Georgien",
        "iso3": "GEO",
        "numcode": "268",
        "phonecode": "995",
        "phone_digits": "8",
        "flag": "flags/ge.png",
        "slug": "null"
    },
    {
        "id": "80",
        "iso": "DE",
        "name": "Tyskland",
        "iso3": "DEU",
        "numcode": "276",
        "phonecode": "49",
        "phone_digits": "8",
        "flag": "flags/de.png",
        "slug": "null"
    },
    {
        "id": "81",
        "iso": "GH",
        "name": "Ghana",
        "iso3": "GHA",
        "numcode": "288",
        "phonecode": "233",
        "phone_digits": "8",
        "flag": "flags/gh.png",
        "slug": "null"
    },
    {
        "id": "82",
        "iso": "GI",
        "name": "Gibraltar",
        "iso3": "GIB",
        "numcode": "292",
        "phonecode": "350",
        "phone_digits": "8",
        "flag": "flags/gi.png",
        "slug": "null"
    },
    {
        "id": "83",
        "iso": "GR",
        "name": "Grekland",
        "iso3": "GRC",
        "numcode": "300",
        "phonecode": "30",
        "phone_digits": "8",
        "flag": "flags/gr.png",
        "slug": "null"
    },
    {
        "id": "84",
        "iso": "GL",
        "name": "Grönland",
        "iso3": "GRL",
        "numcode": "304",
        "phonecode": "299",
        "phone_digits": "8",
        "flag": "flags/gl.png",
        "slug": "null"
    },
    {
        "id": "85",
        "iso": "GD",
        "name": "Grenada",
        "iso3": "GRD",
        "numcode": "308",
        "phonecode": "1473",
        "phone_digits": "8",
        "flag": "flags/gd.png",
        "slug": "null"
    },
    {
        "id": "86",
        "iso": "GP",
        "name": "Guadeloupe",
        "iso3": "GLP",
        "numcode": "312",
        "phonecode": "590",
        "phone_digits": "8",
        "flag": "flags/gp.png",
        "slug": "null"
    },
    {
        "id": "87",
        "iso": "GU",
        "name": "Guam",
        "iso3": "GUM",
        "numcode": "316",
        "phonecode": "1671",
        "phone_digits": "8",
        "flag": "flags/gu.png",
        "slug": "null"
    },
    {
        "id": "88",
        "iso": "GT",
        "name": "Guatemala",
        "iso3": "GTM",
        "numcode": "320",
        "phonecode": "502",
        "phone_digits": "8",
        "flag": "flags/gt.png",
        "slug": "null"
    },
    {
        "id": "89",
        "iso": "GN",
        "name": "Guinea",
        "iso3": "GIN",
        "numcode": "324",
        "phonecode": "224",
        "phone_digits": "8",
        "flag": "flags/gn.png",
        "slug": "null"
    },
    {
        "id": "90",
        "iso": "GW",
        "name": "Guinea-Bissau",
        "iso3": "GNB",
        "numcode": "624",
        "phonecode": "245",
        "phone_digits": "8",
        "flag": "flags/gw.png",
        "slug": "null"
    },
    {
        "id": "91",
        "iso": "GY",
        "name": "Guyana",
        "iso3": "GUY",
        "numcode": "328",
        "phonecode": "592",
        "phone_digits": "8",
        "flag": "flags/gy.png",
        "slug": "null"
    },
    {
        "id": "92",
        "iso": "HT",
        "name": "Haiti",
        "iso3": "HTI",
        "numcode": "332",
        "phonecode": "509",
        "phone_digits": "8",
        "flag": "flags/ht.png",
        "slug": "null"
    },
    {
        "id": "93",
        "iso": "HM",
        "name": "Heard- och McDonaldöarna",
        "iso3": "",
        "numcode": "0",
        "phonecode": "0",
        "phone_digits": "8",
        "flag": "flags/hm.png",
        "slug": "null"
    },
    {
        "id": "94",
        "iso": "VA",
        "name": "Heliga stolen (Vatikanstaten)",
        "iso3": "VAT",
        "numcode": "336",
        "phonecode": "39",
        "phone_digits": "8",
        "flag": "flags/va.png",
        "slug": "null"
    },
    {
        "id": "95",
        "iso": "HN",
        "name": "Honduras",
        "iso3": "HND",
        "numcode": "340",
        "phonecode": "504",
        "phone_digits": "8",
        "flag": "flags/hn.png",
        "slug": "null"
    },
    {
        "id": "96",
        "iso": "HK",
        "name": "Hongkong",
        "iso3": "HKG",
        "numcode": "344",
        "phonecode": "852",
        "phone_digits": "8",
        "flag": "flags/hk.png",
        "slug": "null"
    },
    {
        "id": "97",
        "iso": "HU",
        "name": "Ungern",
        "iso3": "HUN",
        "numcode": "348",
        "phonecode": "36",
        "phone_digits": "8",
        "flag": "flags/hu.png",
        "slug": "null"
    },
    {
        "id": "98",
        "iso": "IS",
        "name": "Island",
        "iso3": "ISL",
        "numcode": "352",
        "phonecode": "354",
        "phone_digits": "8",
        "flag": "flags/is.png",
        "slug": "null"
    },
    {
        "id": "99",
        "iso": "IN",
        "name": "Indien",
        "iso3": "IND",
        "numcode": "356",
        "phonecode": "91",
        "phone_digits": "8",
        "flag": "flags/in.png",
        "slug": "null"
    },
    {
        "id": "100",
        "iso": "ID",
        "name": "Indonesien",
        "iso3": "IDN",
        "numcode": "360",
        "phonecode": "62",
        "phone_digits": "8",
        "flag": "flags/id.png",
        "slug": "null"
    },
    {
        "id": "101",
        "iso": "IR",
        "name": "Iran",
        "iso3": "IRN",
        "numcode": "364",
        "phonecode": "98",
        "phone_digits": "8",
        "flag": "flags/ir.png",
        "slug": "null"
    },
    {
        "id": "102",
        "iso": "IQ",
        "name": "Irak",
        "iso3": "IRQ",
        "numcode": "368",
        "phonecode": "964",
        "phone_digits": "8",
        "flag": "flags/iq.png",
        "slug": "null"
    },
    {
        "id": "103",
        "iso": "IE",
        "name": "Irland",
        "iso3": "IRL",
        "numcode": "372",
        "phonecode": "353",
        "phone_digits": "8",
        "flag": "flags/ie.png",
        "slug": "null"
    },
    {
        "id": "104",
        "iso": "IL",
        "name": "Israel",
        "iso3": "ISR",
        "numcode": "376",
        "phonecode": "972",
        "phone_digits": "8",
        "flag": "flags/il.png",
        "slug": "null"
    },
    {
        "id": "105",
        "iso": "IT",
        "name": "Italien",
        "iso3": "ITA",
        "numcode": "380",
        "phonecode": "39",
        "phone_digits": "8",
        "flag": "flags/it.png",
        "slug": "null"
    },
    {
        "id": "106",
        "iso": "JM",
        "name": "Jamaica",
        "iso3": "JAM",
        "numcode": "388",
        "phonecode": "1876",
        "phone_digits": "8",
        "flag": "flags/jm.png",
        "slug": "null"
    },
    {
        "id": "107",
        "iso": "JP",
        "name": "Japan",
        "iso3": "JPN",
        "numcode": "392",
        "phonecode": "81",
        "phone_digits": "8",
        "flag": "flags/jp.png",
        "slug": "null"
    },
    {
        "id": "108",
        "iso": "JO",
        "name": "Jordanien",
        "iso3": "JOR",
        "numcode": "400",
        "phonecode": "962",
        "phone_digits": "8",
        "flag": "flags/jo.png",
        "slug": "null"
    },
    {
        "id": "109",
        "iso": "KZ",
        "name": "Kazakstan",
        "iso3": "KAZ",
        "numcode": "398",
        "phonecode": "7",
        "phone_digits": "8",
        "flag": "flags/kz.png",
        "slug": "null"
    },
    {
        "id": "110",
        "iso": "KE",
        "name": "Kenya",
        "iso3": "KEN",
        "numcode": "404",
        "phonecode": "254",
        "phone_digits": "8",
        "flag": "flags/ke.png",
        "slug": "null"
    },
    {
        "id": "111",
        "iso": "KI",
        "name": "Kiribati",
        "iso3": "KIR",
        "numcode": "296",
        "phonecode": "686",
        "phone_digits": "8",
        "flag": "flags/ki.png",
        "slug": "null"
    },
    {
        "id": "112",
        "iso": "KP",
        "name": "Nordkorea",
        "iso3": "PRK",
        "numcode": "408",
        "phonecode": "850",
        "phone_digits": "8",
        "flag": "flags/kp.png",
        "slug": "null"
    },
    {
        "id": "113",
        "iso": "KR",
        "name": "Sydkorea",
        "iso3": "KOR",
        "numcode": "410",
        "phonecode": "82",
        "phone_digits": "8",
        "flag": "flags/kr.png",
        "slug": "null"
    },
    {
        "id": "114",
        "iso": "KW",
        "name": "Kuwait",
        "iso3": "KWT",
        "numcode": "414",
        "phonecode": "965",
        "phone_digits": "8",
        "flag": "flags/kw.png",
        "slug": "null"
    },
    {
        "id": "115",
        "iso": "KG",
        "name": "Kirgizistan",
        "iso3": "KGZ",
        "numcode": "417",
        "phonecode": "996",
        "phone_digits": "8",
        "flag": "flags/kg.png",
        "slug": "null"
    },
    {
        "id": "116",
        "iso": "LA",
        "name": "Laos",
        "iso3": "LAO",
        "numcode": "418",
        "phonecode": "856",
        "phone_digits": "8",
        "flag": "flags/la.png",
        "slug": "null"
    },
    {
        "id": "117",
        "iso": "LV",
        "name": "Lettland",
        "iso3": "LVA",
        "numcode": "428",
        "phonecode": "371",
        "phone_digits": "8",
        "flag": "flags/lv.png",
        "slug": "null"
    },
    {
        "id": "118",
        "iso": "LB",
        "name": "Libanon",
        "iso3": "LBN",
        "numcode": "422",
        "phonecode": "961",
        "phone_digits": "8",
        "flag": "flags/lb.png",
        "slug": "null"
    },
    {
        "id": "119",
        "iso": "LS",
        "name": "Lesotho",
        "iso3": "LSO",
        "numcode": "426",
        "phonecode": "266",
        "phone_digits": "8",
        "flag": "flags/ls.png",
        "slug": "null"
    },
    {
        "id": "120",
        "iso": "LR",
        "name": "Liberia",
        "iso3": "LBR",
        "numcode": "430",
        "phonecode": "231",
        "phone_digits": "8",
        "flag": "flags/lr.png",
        "slug": "null"
    },
    {
        "id": "121",
        "iso": "LY",
        "name": "Libyen",
        "iso3": "LBY",
        "numcode": "434",
        "phonecode": "218",
        "phone_digits": "8",
        "flag": "flags/ly.png",
        "slug": "null"
    },
    {
        "id": "122",
        "iso": "LI",
        "name": "Liechtenstein",
        "iso3": "LIE",
        "numcode": "438",
        "phonecode": "423",
        "phone_digits": "8",
        "flag": "flags/li.png",
        "slug": "null"
    },
    {
        "id": "123",
        "iso": "LT",
        "name": "Litauen",
        "iso3": "LTU",
        "numcode": "440",
        "phonecode": "370",
        "phone_digits": "8",
        "flag": "flags/lt.png",
        "slug": "null"
    },
    {
        "id": "124",
        "iso": "LU",
        "name": "Luxemburg",
        "iso3": "LUX",
        "numcode": "442",
        "phonecode": "352",
        "phone_digits": "8",
        "flag": "flags/lu.png",
        "slug": "null"
    },
    {
        "id": "125",
        "iso": "MO",
        "name": "Macao",
        "iso3": "MAC",
        "numcode": "446",
        "phonecode": "853",
        "phone_digits": "8",
        "flag": "flags/mo.png",
        "slug": "null"
    },
    {
        "id": "126",
        "iso": "MK",
        "name": "Nordmakedonien",
        "iso3": "MKD",
        "numcode": "807",
        "phonecode": "389",
        "phone_digits": "8",
        "flag": "flags/mk.png",
        "slug": "null"
    },
    {
        "id": "127",
        "iso": "MG",
        "name": "Madagaskar",
        "iso3": "MDG",
        "numcode": "450",
        "phonecode": "261",
        "phone_digits": "8",
        "flag": "flags/mg.png",
        "slug": "null"
    },
    {
        "id": "128",
        "iso": "MW",
        "name": "Malawi",
        "iso3": "MWI",
        "numcode": "454",
        "phonecode": "265",
        "phone_digits": "8",
        "flag": "flags/mw.png",
        "slug": "null"
    },
    {
        "id": "129",
        "iso": "MY",
        "name": "Malaysia",
        "iso3": "MYS",
        "numcode": "458",
        "phonecode": "60",
        "phone_digits": "8",
        "flag": "flags/my.png",
        "slug": "null"
    },
    {
        "id": "130",
        "iso": "MV",
        "name": "Maldiverna",
        "iso3": "MDV",
        "numcode": "462",
        "phonecode": "960",
        "phone_digits": "8",
        "flag": "flags/mv.png",
        "slug": "null"
    },
    {
        "id": "131",
        "iso": "ML",
        "name": "Mali",
        "iso3": "MLI",
        "numcode": "466",
        "phonecode": "223",
        "phone_digits": "8",
        "flag": "flags/ml.png",
        "slug": "null"
    },
    {
        "id": "132",
        "iso": "MT",
        "name": "Malta",
        "iso3": "MLT",
        "numcode": "470",
        "phonecode": "356",
        "phone_digits": "8",
        "flag": "flags/mt.png",
        "slug": "null"
    },
    {
        "id": "133",
        "iso": "MH",
        "name": "Marshallöarna",
        "iso3": "MHL",
        "numcode": "584",
        "phonecode": "692",
        "phone_digits": "8",
        "flag": "flags/mh.png",
        "slug": "null"
    },
    {
        "id": "134",
        "iso": "MQ",
        "name": "Martinique",
        "iso3": "MTQ",
        "numcode": "474",
        "phonecode": "596",
        "phone_digits": "8",
        "flag": "flags/mq.png",
        "slug": "null"
    },
    {
        "id": "135",
        "iso": "MR",
        "name": "Mauretanien",
        "iso3": "MRT",
        "numcode": "478",
        "phonecode": "222",
        "phone_digits": "8",
        "flag": "flags/mr.png",
        "slug": "null"
    },
    {
        "id": "136",
        "iso": "MU",
        "name": "Mauritius",
        "iso3": "MUS",
        "numcode": "480",
        "phonecode": "230",
        "phone_digits": "8",
        "flag": "flags/mu.png",
        "slug": "null"
    },
    {
        "id": "137",
        "iso": "YT",
        "name": "Mayotte",
        "iso3": "",
        "numcode": "0",
        "phonecode": "269",
        "phone_digits": "8",
        "flag": "flags/yt.png",
        "slug": "null"
    },
    {
        "id": "138",
        "iso": "MX",
        "name": "Mexiko",
        "iso3": "MEX",
        "numcode": "484",
        "phonecode": "52",
        "phone_digits": "8",
        "flag": "flags/mx.png",
        "slug": "null"
    },
    {
        "id": "139",
        "iso": "FM",
        "name": "Mikronesien",
        "iso3": "FSM",
        "numcode": "583",
        "phonecode": "691",
        "phone_digits": "8",
        "flag": "flags/fm.png",
        "slug": "null"
    },
    {
        "id": "140",
        "iso": "MD",
        "name": "Moldavien",
        "iso3": "MDA",
        "numcode": "498",
        "phonecode": "373",
        "phone_digits": "8",
        "flag": "flags/md.png",
        "slug": "null"
    },
    {
        "id": "141",
        "iso": "MC",
        "name": "Monaco",
        "iso3": "MCO",
        "numcode": "492",
        "phonecode": "377",
        "phone_digits": "8",
        "flag": "flags/mc.png",
        "slug": "null"
    },
    {
        "id": "142",
        "iso": "MN",
        "name": "Mongoliet",
        "iso3": "MNG",
        "numcode": "496",
        "phonecode": "976",
        "phone_digits": "8",
        "flag": "flags/mn.png",
        "slug": "null"
    },
    {
        "id": "143",
        "iso": "MS",
        "name": "Montserrat",
        "iso3": "MSR",
        "numcode": "500",
        "phonecode": "1664",
        "phone_digits": "8",
        "flag": "flags/ms.png",
        "slug": "null"
    },
    {
        "id": "144",
        "iso": "MA",
        "name": "Marocko",
        "iso3": "MAR",
        "numcode": "504",
        "phonecode": "212",
        "phone_digits": "8",
        "flag": "flags/ma.png",
        "slug": "null"
    },
    {
        "id": "145",
        "iso": "MZ",
        "name": "Moçambique",
        "iso3": "MOZ",
        "numcode": "508",
        "phonecode": "258",
        "phone_digits": "8",
        "flag": "flags/mz.png",
        "slug": "null"
    },
    {
        "id": "146",
        "iso": "MM",
        "name": "Myanmar",
        "iso3": "MMR",
        "numcode": "104",
        "phonecode": "95",
        "phone_digits": "8",
        "flag": "flags/mm.png",
        "slug": "null"
    },
    {
        "id": "147",
        "iso": "NA",
        "name": "Namibia",
        "iso3": "NAM",
        "numcode": "516",
        "phonecode": "264",
        "phone_digits": "8",
        "flag": "flags/na.png",
        "slug": "null"
    },
    {
        "id": "148",
        "iso": "NR",
        "name": "Nauru",
        "iso3": "NRU",
        "numcode": "520",
        "phonecode": "674",
        "phone_digits": "8",
        "flag": "flags/nr.png",
        "slug": "null"
    },
    {
        "id": "149",
        "iso": "NP",
        "name": "Nepal",
        "iso3": "NPL",
        "numcode": "524",
        "phonecode": "977",
        "phone_digits": "8",
        "flag": "flags/np.png",
        "slug": "null"
    },
    {
        "id": "150",
        "iso": "NL",
        "name": "Nederländerna",
        "iso3": "NLD",
        "numcode": "528",
        "phonecode": "31",
        "phone_digits": "8",
        "flag": "flags/nl.png",
        "slug": "null"
    },
    {
        "id": "151",
        "iso": "AN",
        "name": "Nederländska Antillerna",
        "iso3": "ANT",
        "numcode": "530",
        "phonecode": "599",
        "phone_digits": "8",
        "flag": "flags/an.png",
        "slug": "null"
    },
    {
        "id": "152",
        "iso": "NC",
        "name": "Nya Kaledonien",
        "iso3": "NCL",
        "numcode": "540",
        "phonecode": "687",
        "phone_digits": "8",
        "flag": "flags/nc.png",
        "slug": "null"
    },
    {
        "id": "153",
        "iso": "NZ",
        "name": "Nya Zeeland",
        "iso3": "NZL",
        "numcode": "554",
        "phonecode": "64",
        "phone_digits": "8",
        "flag": "flags/nz.png",
        "slug": "null"
    },
    {
        "id": "154",
        "iso": "NI",
        "name": "Nicaragua",
        "iso3": "NIC",
        "numcode": "558",
        "phonecode": "505",
        "phone_digits": "8",
        "flag": "flags/ni.png",
        "slug": "null"
    },
    {
        "id": "155",
        "iso": "NE",
        "name": "Niger",
        "iso3": "NER",
        "numcode": "562",
        "phonecode": "227",
        "phone_digits": "8",
        "flag": "flags/ne.png",
        "slug": "null"
    },
    {
        "id": "156",
        "iso": "NG",
        "name": "Nigeria",
        "iso3": "NGA",
        "numcode": "566",
        "phonecode": "234",
        "phone_digits": "8",
        "flag": "flags/ng.png",
        "slug": "null"
    },
    {
        "id": "157",
        "iso": "NU",
        "name": "Niue",
        "iso3": "NIU",
        "numcode": "570",
        "phonecode": "683",
        "phone_digits": "8",
        "flag": "flags/nu.png",
        "slug": "null"
    },
    {
        "id": "158",
        "iso": "NF",
        "name": "Norfolkön",
        "iso3": "NFK",
        "numcode": "574",
        "phonecode": "672",
        "phone_digits": "8",
        "flag": "flags/nf.png",
        "slug": "null"
    },
    {
        "id": "159",
        "iso": "MP",
        "name": "Nordmarianerna",
        "iso3": "MNP",
        "numcode": "580",
        "phonecode": "1670",
        "phone_digits": "8",
        "flag": "flags/mp.png",
        "slug": "null"
    },
    {
        "id": "160",
        "iso": "NO",
        "name": "Norge",
        "iso3": "NOR",
        "numcode": "578",
        "phonecode": "47",
        "phone_digits": "8",
        "flag": "flags/no.png",
        "slug": "null"
    },
    {
        "id": "161",
        "iso": "OM",
        "name": "Oman",
        "iso3": "OMN",
        "numcode": "512",
        "phonecode": "968",
        "phone_digits": "8",
        "flag": "flags/om.png",
        "slug": "null"
    },
    {
        "id": "162",
        "iso": "PK",
        "name": "Pakistan",
        "iso3": "PAK",
        "numcode": "586",
        "phonecode": "92",
        "phone_digits": "8",
        "flag": "flags/pk.png",
        "slug": "null"
    },
    {
        "id": "163",
        "iso": "PW",
        "name": "Palau",
        "iso3": "PLW",
        "numcode": "585",
        "phonecode": "680",
        "phone_digits": "8",
        "flag": "flags/pw.png",
        "slug": "null"
    },
    {
        "id": "164",
        "iso": "PS",
        "name": "Palestina",
        "iso3": "",
        "numcode": "0",
        "phonecode": "970",
        "phone_digits": "8",
        "flag": "flags/ps.png",
        "slug": "null"
    },
    {
        "id": "165",
        "iso": "PA",
        "name": "Panama",
        "iso3": "PAN",
        "numcode": "591",
        "phonecode": "507",
        "phone_digits": "8",
        "flag": "flags/pa.png",
        "slug": "null"
    },
    {
        "id": "166",
        "iso": "PG",
        "name": "Papua Nya Guinea",
        "iso3": "PNG",
        "numcode": "598",
        "phonecode": "675",
        "phone_digits": "8",
        "flag": "flags/pg.png",
        "slug": "null"
    },
    {
        "id": "167",
        "iso": "PY",
        "name": "Paraguay",
        "iso3": "PRY",
        "numcode": "600",
        "phonecode": "595",
        "phone_digits": "8",
        "flag": "flags/py.png",
        "slug": "null"
    },
    {
        "id": "168",
        "iso": "PE",
        "name": "Peru",
        "iso3": "PER",
        "numcode": "604",
        "phonecode": "51",
        "phone_digits": "8",
        "flag": "flags/pe.png",
        "slug": "null"
    },
    {
        "id": "169",
        "iso": "PH",
        "name": "Filippinerna",
        "iso3": "PHL",
        "numcode": "608",
        "phonecode": "63",
        "phone_digits": "8",
        "flag": "flags/ph.png",
        "slug": "null"
    },
    {
        "id": "170",
        "iso": "PN",
        "name": "Pitcairnöarna",
        "iso3": "PCN",
        "numcode": "612",
        "phonecode": "0",
        "phone_digits": "8",
        "flag": "flags/pn.png",
        "slug": "null"
    },
    {
        "id": "171",
        "iso": "PL",
        "name": "Polen",
        "iso3": "POL",
        "numcode": "616",
        "phonecode": "48",
        "phone_digits": "8",
        "flag": "flags/pl.png",
        "slug": "null"
    },
    {
        "id": "172",
        "iso": "PT",
        "name": "Portugal",
        "iso3": "PRT",
        "numcode": "620",
        "phonecode": "351",
        "phone_digits": "8",
        "flag": "flags/pt.png",
        "slug": "null"
    },
    {
        "id": "173",
        "iso": "PR",
        "name": "Puerto Rico",
        "iso3": "PRI",
        "numcode": "630",
        "phonecode": "1787",
        "phone_digits": "8",
        "flag": "flags/pr.png",
        "slug": "null"
    },
    {
        "id": "174",
        "iso": "QA",
        "name": "Qatar",
        "iso3": "QAT",
        "numcode": "634",
        "phonecode": "974",
        "phone_digits": "8",
        "flag": "flags/qa.png",
        "slug": "null"
    },
    {
        "id": "175",
        "iso": "RE",
        "name": "Réunion",
        "iso3": "REU",
        "numcode": "638",
        "phonecode": "262",
        "phone_digits": "8",
        "flag": "flags/re.png",
        "slug": "null"
    },
    {
        "id": "176",
        "iso": "RO",
        "name": "Rumänien",
        "iso3": "ROM",
        "numcode": "642",
        "phonecode": "40",
        "phone_digits": "8",
        "flag": "flags/ro.png",
        "slug": "null"
    },
    {
        "id": "177",
        "iso": "RU",
        "name": "Ryssland",
        "iso3": "RUS",
        "numcode": "643",
        "phonecode": "70",
        "phone_digits": "8",
        "flag": "flags/ru.png",
        "slug": "null"
    },
    {
        "id": "178",
        "iso": "RW",
        "name": "Rwanda",
        "iso3": "RWA",
        "numcode": "646",
        "phonecode": "250",
        "phone_digits": "8",
        "flag": "flags/rw.png",
        "slug": "null"
    },
    {
        "id": "179",
        "iso": "SH",
        "name": "Sankta Helena",
        "iso3": "SHN",
        "numcode": "654",
        "phonecode": "290",
        "phone_digits": "8",
        "flag": "flags/sh.png",
        "slug": "null"
    },
    {
        "id": "180",
        "iso": "KN",
        "name": "Saint Kitts och Nevis",
        "iso3": "KNA",
        "numcode": "659",
        "phonecode": "1869",
        "phone_digits": "8",
        "flag": "flags/kn.png",
        "slug": "null"
    },
    {
        "id": "181",
        "iso": "LC",
        "name": "Saint Lucia",
        "iso3": "LCA",
        "numcode": "662",
        "phonecode": "1758",
        "phone_digits": "8",
        "flag": "flags/lc.png",
        "slug": "null"
    },
    {
        "id": "182",
        "iso": "PM",
        "name": "Saint Pierre och Miquelon",
        "iso3": "SPM",
        "numcode": "666",
        "phonecode": "508",
        "phone_digits": "8",
        "flag": "flags/pm.png",
        "slug": "null"
    },
    {
        "id": "183",
        "iso": "VC",
        "name": "Saint Vincent och Grenadinerna",
        "iso3": "VCT",
        "numcode": "670",
        "phonecode": "1784",
        "phone_digits": "8",
        "flag": "flags/vc.png",
        "slug": "null"
    },
    {
        "id": "184",
        "iso": "WS",
        "name": "Samoa",
        "iso3": "WSM",
        "numcode": "882",
        "phonecode": "684",
        "phone_digits": "8",
        "flag": "flags/ws.png",
        "slug": "null"
    },
    {
        "id": "185",
        "iso": "SM",
        "name": "San Marino",
        "iso3": "SMR",
        "numcode": "674",
        "phonecode": "378",
        "phone_digits": "8",
        "flag": "flags/sm.png",
        "slug": "null"
    },
    {
        "id": "186",
        "iso": "ST",
        "name": "São Tomé och Príncipe",
        "iso3": "STP",
        "numcode": "678",
        "phonecode": "239",
        "phone_digits": "8",
        "flag": "flags/st.png",
        "slug": "null"
    },
    {
        "id": "187",
        "iso": "SA",
        "name": "Saudiarabien",
        "iso3": "SAU",
        "numcode": "682",
        "phonecode": "966",
        "phone_digits": "8",
        "flag": "flags/sa.png",
        "slug": "null"
    },
    {
        "id": "188",
        "iso": "SN",
        "name": "Senegal",
        "iso3": "SEN",
        "numcode": "686",
        "phonecode": "221",
        "phone_digits": "8",
        "flag": "flags/sn.png",
        "slug": "null"
    },
    {
        "id": "189",
        "iso": "CS",
        "name": "Serbien och Montenegro",
        "iso3": "",
        "numcode": "0",
        "phonecode": "381",
        "phone_digits": "8",
        "flag": "flags/cs.png",
        "slug": "null"
    },
    {
        "id": "190",
        "iso": "SC",
        "name": "Seychellerna",
        "iso3": "SYC",
        "numcode": "690",
        "phonecode": "248",
        "phone_digits": "8",
        "flag": "flags/sc.png",
        "slug": "null"
    },
    {
        "id": "191",
        "iso": "SL",
        "name": "Sierra Leone",
        "iso3": "SLE",
        "numcode": "694",
        "phonecode": "232",
        "phone_digits": "8",
        "flag": "flags/sl.png",
        "slug": "null"
    },
    {
        "id": "192",
        "iso": "SG",
        "name": "Singapore",
        "iso3": "SGP",
        "numcode": "702",
        "phonecode": "65",
        "phone_digits": "8",
        "flag": "flags/sg.png",
        "slug": "null"
    },
    {
        "id": "193",
        "iso": "SK",
        "name": "Slovakien",
        "iso3": "SVK",
        "numcode": "703",
        "phonecode": "421",
        "phone_digits": "8",
        "flag": "flags/sk.png",
        "slug": "null"
    },
    {
        "id": "194",
        "iso": "SI",
        "name": "Slovenien",
        "iso3": "SVN",
        "numcode": "705",
        "phonecode": "386",
        "phone_digits": "8",
        "flag": "flags/si.png",
        "slug": "null"
    },
    {
        "id": "195",
        "iso": "SB",
        "name": "Salomonöarna",
        "iso3": "SLB",
        "numcode": "90",
        "phonecode": "677",
        "phone_digits": "8",
        "flag": "flags/sb.png",
        "slug": "null"
    },
    {
        "id": "196",
        "iso": "SO",
        "name": "Somalia",
        "iso3": "SOM",
        "numcode": "706",
        "phonecode": "252",
        "phone_digits": "8",
        "flag": "flags/so.png",
        "slug": "null"
    },
    {
        "id": "197",
        "iso": "ZA",
        "name": "Sydafrika",
        "iso3": "ZAF",
        "numcode": "710",
        "phonecode": "27",
        "phone_digits": "8",
        "flag": "flags/za.png",
        "slug": "null"
    },
    {
        "id": "198",
        "iso": "GS",
        "name": "Sydgeorgien och Sydsandwichöarna",
        "iso3": "",
        "numcode": "0",
        "phonecode": "0",
        "phone_digits": "8",
        "flag": "flags/gs.png",
        "slug": "null"
    },
    {
        "id": "199",
        "iso": "ES",
        "name": "Spanien",
        "iso3": "ESP",
        "numcode": "724",
        "phonecode": "34",
        "phone_digits": "9",
        "flag": "flags/es.png",
        "slug": "null"
    },
    {
        "id": "200",
        "iso": "LK",
        "name": "Sri Lanka",
        "iso3": "LKA",
        "numcode": "144",
        "phonecode": "94",
        "phone_digits": "8",
        "flag": "flags/lk.png",
        "slug": "null"
    },
    {
        "id": "201",
        "iso": "SD",
        "name": "Sudan",
        "iso3": "SDN",
        "numcode": "736",
        "phonecode": "249",
        "phone_digits": "8",
        "flag": "flags/sd.png",
        "slug": "null"
    },
    {
        "id": "202",
        "iso": "SR",
        "name": "Surinam",
        "iso3": "SUR",
        "numcode": "740",
        "phonecode": "597",
        "phone_digits": "8",
        "flag": "flags/sr.png",
        "slug": "null"
    },
    {
        "id": "203",
        "iso": "SJ",
        "name": "Svalbard och Jan Mayen",
        "iso3": "SJM",
        "numcode": "744",
        "phonecode": "47",
        "phone_digits": "8",
        "flag": "flags/sj.png",
        "slug": "null"
    },
    {
        "id": "204",
        "iso": "SZ",
        "name": "Swaziland (Eswatini)",
        "iso3": "SWZ",
        "numcode": "748",
        "phonecode": "268",
        "phone_digits": "8",
        "flag": "flags/sz.png",
        "slug": "null"
    },
    {
        "id": "205",
        "iso": "SE",
        "name": "Sverige",
        "iso3": "SWE",
        "numcode": "752",
        "phonecode": "46",
        "phone_digits": "8",
        "flag": "flags/se.png",
        "slug": "null"
    },
    {
        "id": "206",
        "iso": "CH",
        "name": "Schweiz",
        "iso3": "CHE",
        "numcode": "756",
        "phonecode": "41",
        "phone_digits": "8",
        "flag": "flags/ch.png",
        "slug": "null"
    },
    {
        "id": "207",
        "iso": "SY",
        "name": "Syrien",
        "iso3": "SYR",
        "numcode": "760",
        "phonecode": "963",
        "phone_digits": "8",
        "flag": "flags/sy.png",
        "slug": "null"
    },
    {
        "id": "208",
        "iso": "TW",
        "name": "Taiwan",
        "iso3": "TWN",
        "numcode": "158",
        "phonecode": "886",
        "phone_digits": "8",
        "flag": "flags/tw.png",
        "slug": "null"
    },
    {
        "id": "209",
        "iso": "TJ",
        "name": "Tadzjikistan",
        "iso3": "TJK",
        "numcode": "762",
        "phonecode": "992",
        "phone_digits": "8",
        "flag": "flags/tj.png",
        "slug": "null"
    },
    {
        "id": "210",
        "iso": "TZ",
        "name": "Tanzania",
        "iso3": "TZA",
        "numcode": "834",
        "phonecode": "255",
        "phone_digits": "8",
        "flag": "flags/tz.png",
        "slug": "null"
    },
    {
        "id": "211",
        "iso": "TH",
        "name": "Thailand",
        "iso3": "THA",
        "numcode": "764",
        "phonecode": "66",
        "phone_digits": "8",
        "flag": "flags/th.png",
        "slug": "null"
    },
    {
        "id": "212",
        "iso": "TL",
        "name": "Östtimor",
        "iso3": "",
        "numcode": "0",
        "phonecode": "670",
        "phone_digits": "8",
        "flag": "flags/tl.png",
        "slug": "null"
    },
    {
        "id": "213",
        "iso": "TG",
        "name": "Togo",
        "iso3": "TGO",
        "numcode": "768",
        "phonecode": "228",
        "phone_digits": "8",
        "flag": "flags/tg.png",
        "slug": "null"
    },
    {
        "id": "214",
        "iso": "TK",
        "name": "Tokelau",
        "iso3": "TKL",
        "numcode": "772",
        "phonecode": "690",
        "phone_digits": "8",
        "flag": "flags/tk.png",
        "slug": "null"
    },
    {
        "id": "215",
        "iso": "TO",
        "name": "Tonga",
        "iso3": "TON",
        "numcode": "776",
        "phonecode": "676",
        "phone_digits": "8",
        "flag": "flags/to.png",
        "slug": "null"
    },
    {
        "id": "216",
        "iso": "TT",
        "name": "Trinidad och Tobago",
        "iso3": "TTO",
        "numcode": "780",
        "phonecode": "1868",
        "phone_digits": "8",
        "flag": "flags/tt.png",
        "slug": "null"
    },
    {
        "id": "217",
        "iso": "TN",
        "name": "Tunisien",
        "iso3": "TUN",
        "numcode": "788",
        "phonecode": "216",
        "phone_digits": "8",
        "flag": "flags/tn.png",
        "slug": "null"
    },
    {
        "id": "218",
        "iso": "TR",
        "name": "Turkiet",
        "iso3": "TUR",
        "numcode": "792",
        "phonecode": "90",
        "phone_digits": "8",
        "flag": "flags/tr.png",
        "slug": "null"
    },
    {
        "id": "219",
        "iso": "TM",
        "name": "Turkmenistan",
        "iso3": "TKM",
        "numcode": "795",
        "phonecode": "7370",
        "phone_digits": "8",
        "flag": "flags/tm.png",
        "slug": "null"
    },
    {
        "id": "220",
        "iso": "TC",
        "name": "Turks- och Caicosöarna",
        "iso3": "TCA",
        "numcode": "796",
        "phonecode": "1649",
        "phone_digits": "8",
        "flag": "flags/tc.png",
        "slug": "null"
    },
    {
        "id": "221",
        "iso": "TV",
        "name": "Tuvalu",
        "iso3": "TUV",
        "numcode": "798",
        "phonecode": "688",
        "phone_digits": "8",
        "flag": "flags/tv.png",
        "slug": "null"
    },
    {
        "id": "222",
        "iso": "UG",
        "name": "Uganda",
        "iso3": "UGA",
        "numcode": "800",
        "phonecode": "256",
        "phone_digits": "8",
        "flag": "flags/ug.png",
        "slug": "null"
    },
    {
        "id": "223",
        "iso": "UA",
        "name": "Ukraina",
        "iso3": "UKR",
        "numcode": "804",
        "phonecode": "380",
        "phone_digits": "8",
        "flag": "flags/ua.png",
        "slug": "null"
    },
    {
        "id": "224",
        "iso": "AE",
        "name": "Förenade Arabemiraten",
        "iso3": "ARE",
        "numcode": "784",
        "phonecode": "971",
        "phone_digits": "8",
        "flag": "flags/ae.png",
        "slug": "null"
    },
    {
        "id": "225",
        "iso": "GB",
        "name": "Storbritannien",
        "iso3": "GBR",
        "numcode": "826",
        "phonecode": "44",
        "phone_digits": "8",
        "flag": "flags/gb.png",
        "slug": "null"
    },
    {
        "id": "226",
        "iso": "US",
        "name": "USA",
        "iso3": "USA",
        "numcode": "840",
        "phonecode": "1",
        "phone_digits": "8",
        "flag": "flags/us.png",
        "slug": "null"
    },
    {
        "id": "227",
        "iso": "UM",
        "name": "USA:s yttre öar",
        "iso3": "",
        "numcode": "0",
        "phonecode": "1",
        "phone_digits": "8",
        "flag": "flags/um.png",
        "slug": "null"
    },
    {
        "id": "228",
        "iso": "UY",
        "name": "Uruguay",
        "iso3": "URY",
        "numcode": "858",
        "phonecode": "598",
        "phone_digits": "8",
        "flag": "flags/uy.png",
        "slug": "null"
    },
    {
        "id": "229",
        "iso": "UZ",
        "name": "Uzbekistan",
        "iso3": "UZB",
        "numcode": "860",
        "phonecode": "998",
        "phone_digits": "8",
        "flag": "flags/uz.png",
        "slug": "null"
    },
    {
        "id": "230",
        "iso": "VU",
        "name": "Vanuatu",
        "iso3": "VUT",
        "numcode": "548",
        "phonecode": "678",
        "phone_digits": "8",
        "flag": "flags/vu.png",
        "slug": "null"
    },
    {
        "id": "231",
        "iso": "VE",
        "name": "Venezuela",
        "iso3": "VEN",
        "numcode": "862",
        "phonecode": "58",
        "phone_digits": "11",
        "flag": "flags/ve.png",
        "slug": "null"
    },
    {
        "id": "232",
        "iso": "VN",
        "name": "Vietnam",
        "iso3": "VNM",
        "numcode": "704",
        "phonecode": "84",
        "phone_digits": "8",
        "flag": "flags/vn.png",
        "slug": "null"
    },
    {
        "id": "233",
        "iso": "VG",
        "name": "Brittiska Jungfruöarna",
        "iso3": "VGB",
        "numcode": "92",
        "phonecode": "1284",
        "phone_digits": "8",
        "flag": "flags/vg.png",
        "slug": "null"
    },
    {
        "id": "234",
        "iso": "VI",
        "name": "Amerikanska Jungfruöarna",
        "iso3": "VIR",
        "numcode": "850",
        "phonecode": "1340",
        "phone_digits": "8",
        "flag": "flags/vi.png",
        "slug": "null"
    },
    {
        "id": "235",
        "iso": "WF",
        "name": "Wallis- och Futunaöarna",
        "iso3": "WLF",
        "numcode": "876",
        "phonecode": "681",
        "phone_digits": "8",
        "flag": "flags/wf.png",
        "slug": "null"
    },
    {
        "id": "236",
        "iso": "EH",
        "name": "Västsahara",
        "iso3": "ESH",
        "numcode": "732",
        "phonecode": "212",
        "phone_digits": "8",
        "flag": "flags/eh.png",
        "slug": "null"
    },
    {
        "id": "237",
        "iso": "YE",
        "name": "Jemen",
        "iso3": "YEM",
        "numcode": "887",
        "phonecode": "967",
        "phone_digits": "8",
        "flag": "flags/ye.png",
        "slug": "null"
    },
    {
        "id": "238",
        "iso": "ZM",
        "name": "Zambia",
        "iso3": "ZMB",
        "numcode": "894",
        "phonecode": "260",
        "phone_digits": "8",
        "flag": "flags/zm.png",
        "slug": "null"
    },
    {
        "id": "239",
        "iso": "ZW",
        "name": "Zimbabwe",
        "iso3": "ZWE",
        "numcode": "716",
        "phonecode": "263",
        "phone_digits": "8",
        "flag": "flags/zw.png",
        "slug": "null"
    },
    {
        "id": "240",
        "iso": "RS",
        "name": "Serbien",
        "iso3": "SRB",
        "numcode": "688",
        "phonecode": "381",
        "phone_digits": "8",
        "flag": "flags/rs.png",
        "slug": "null"
    },
    {
        "id": "241",
        "iso": "AP",
        "name": "Asien-Stillahavsregionen",
        "iso3": "0",
        "numcode": "0",
        "phonecode": "0",
        "phone_digits": "8",
        "flag": "null",
        "slug": "null"
    },
    {
        "id": "242",
        "iso": "ME",
        "name": "Montenegro",
        "iso3": "MNE",
        "numcode": "499",
        "phonecode": "382",
        "phone_digits": "8",
        "flag": "flags/me.png",
        "slug": "null"
    },
    {
        "id": "243",
        "iso": "AX",
        "name": "Åland",
        "iso3": "ALA",
        "numcode": "248",
        "phonecode": "358",
        "phone_digits": "8",
        "flag": "flags/ax.png",
        "slug": "null"
    },
    {
        "id": "244",
        "iso": "BQ",
        "name": "Bonaire, Sint Eustatius och Saba",
        "iso3": "BES",
        "numcode": "535",
        "phonecode": "599",
        "phone_digits": "8",
        "flag": "flags/bq.png",
        "slug": "null"
    },
    {
        "id": "245",
        "iso": "CW",
        "name": "Curaçao",
        "iso3": "CUW",
        "numcode": "531",
        "phonecode": "599",
        "phone_digits": "8",
        "flag": "flags/cw.png",
        "slug": "null"
    },
    {
        "id": "246",
        "iso": "GG",
        "name": "Guernsey",
        "iso3": "GGY",
        "numcode": "831",
        "phonecode": "44",
        "phone_digits": "8",
        "flag": "flags/gg.png",
        "slug": "null"
    },
    {
        "id": "247",
        "iso": "IM",
        "name": "Isle of Man",
        "iso3": "IMN",
        "numcode": "833",
        "phonecode": "44",
        "phone_digits": "8",
        "flag": "flags/im.png",
        "slug": "null"
    },
    {
        "id": "248",
        "iso": "JE",
        "name": "Jersey",
        "iso3": "JEY",
        "numcode": "832",
        "phonecode": "44",
        "phone_digits": "8",
        "flag": "flags/je.png",
        "slug": "null"
    },
    {
        "id": "249",
        "iso": "XK",
        "name": "Kosovo",
        "iso3": "---",
        "numcode": "0",
        "phonecode": "381",
        "phone_digits": "8",
        "flag": "flags/xk.png",
        "slug": "null"
    },
    {
        "id": "250",
        "iso": "BL",
        "name": "Saint-Barthélemy",
        "iso3": "BLM",
        "numcode": "652",
        "phonecode": "590",
        "phone_digits": "8",
        "flag": "flags/bl.png",
        "slug": "null"
    },
    {
        "id": "251",
        "iso": "MF",
        "name": "Saint-Martin",
        "iso3": "MAF",
        "numcode": "663",
        "phonecode": "590",
        "phone_digits": "8",
        "flag": "flags/mf.png",
        "slug": "null"
    },
    {
        "id": "252",
        "iso": "SX",
        "name": "Sint Maarten",
        "iso3": "SXM",
        "numcode": "534",
        "phonecode": "1",
        "phone_digits": "8",
        "flag": "flags/sx.png",
        "slug": "null"
    },
    {
        "id": "253",
        "iso": "SS",
        "name": "Sydsudan",
        "iso3": "SSD",
        "numcode": "728",
        "phonecode": "211",
        "phone_digits": "8",
        "flag": "flags/ss.png",
        "slug": "null"
    },
    {
        "id": "254",
        "iso": "KR",
        "name": "Sydkorea",
        "iso3": "KOR",
        "numcode": "410",
        "phonecode": "82",
        "phone_digits": "8",
        "flag": "flags/kr.png",
        "slug": "null"
    },
    {
        "id": "255",
        "iso": "RU",
        "name": "Ryssland",
        "iso3": "RUS",
        "numcode": "643",
        "phonecode": "7",
        "phone_digits": "8",
        "flag": "flags/ru.png",
        "slug": "null"
    },
    {
        "id": "256",
        "iso": "EN",
        "name": "England",
        "iso3": "GBR",
        "numcode": "826",
        "phonecode": "44",
        "phone_digits": "8",
        "flag": "flags/en.png",
        "slug": "null"
    },
    {
        "id": "257",
        "iso": "WA",
        "name": "Wales",
        "iso3": "GBR",
        "numcode": "826",
        "phonecode": "44",
        "phone_digits": "8",
        "flag": "flags/wa.png",
        "slug": "null"
    }
]